COSMOS 2522 [GLONASS-M] 
1 42939U 17055A   25122.99061866 -.00000011  00000+0  00000+0 0  9993
2 42939  64.0757 205.8505 0009055 236.8905 123.0736  2.13101780 59239
COSMOS 2527 [GLONASS-M] 
1 43508U 18053A   25123.41976615  .00000029  00000+0  00000+0 0  9998
2 43508  65.3556  87.5981 0008811 246.9053 112.9794  2.13102187 53542
COSMOS 2529 [GLONASS-M] 
1 43687U 18086A   25123.51799635 -.00000017  00000+0  00000+0 0  9996
2 43687  64.2915 206.4315 0010191 257.1149 102.8202  2.13102010 50559
COSMOS 2534 [GLONASS-M] 
1 44299U 19030A   25123.31887792 -.00000015  00000+0  00000+0 0  9994
2 44299  64.3649 206.4218 0011890 278.9636  62.5281  2.13102336 46189
COSMOS 2544 [GLONASS-M] 
1 44850U 19088A   25123.36411529  .00000029  00000+0  00000+0 0  9990
2 44850  65.3427  87.4309 0014846 262.5409  97.2679  2.13101967 41984
COSMOS 2545 [GLONASS-M] 
1 45358U 20018A   25123.09149542 -.00000050  00000+0  00000+0 0  9997
2 45358  64.5933 326.7990 0007120 242.8712 117.0824  2.13102513 39923
COSMOS 2547 [GLONASS-K] 
1 46805U 20075A   25123.74672565 -.00000019  00000+0  00000+0 0  9991
2 46805  64.5948 206.1442 0008030 237.8412 122.1296  2.13100386 35182
COSMOS 2557 [GLONASS-K] 
1 52984U 22075A   25123.44442457 -.00000052  00000+0  00000+0 0  9997
2 52984  64.5286 328.8875 0010664 283.4099  76.4999  2.13102033 21983
COSMOS 2564 [GLONASS-M] 
1 54377U 22161A   25123.57735362 -.00000017  00000+0  00000+0 0  9996
2 54377  64.7366 206.3123 0010563 219.5408 140.4310  2.13101982 18909
COSMOS 2569 [GLONASS-K2]
1 57517U 23114A   25123.59209936  .00000027  00000+0  00000+0 0  9999
2 57517  65.0742  86.4574 0012524 296.1704  63.6786  2.13103788 13539
COSMOS 2584 [GLONASS-K2]
1 63130U 25042A   25123.00935491  .00000025  00000+0  00000+0 0  9995
2 63130  64.8553  86.7706 0007232 236.1267 123.7810  2.13103656  1304
