[
    {
        "OBJECT_NAME": "COSMOS 2522 [GLONASS-M]",
        "OBJECT_ID": "2017-055A",
        "EPOCH": "2025-05-02T23:46:29.452224",
        "MEAN_MOTION": 2.1310178,
        "ECCENTRICITY": 0.0009055,
        "INCLINATION": 64.0757,
        "RA_OF_ASC_NODE": 205.8505,
        "ARG_OF_PERICENTER": 236.8905,
        "MEAN_ANOMALY": 123.0736,
        "EPHEMERIS_TYPE": 0,
        "CLASSIFICATION_TYPE": "U",
        "NORAD_CAT_ID": 42939,
        "ELEMENT_SET_NO": 999,
        "REV_AT_EPOCH": 5923,
        "BSTAR": 0,
        "MEAN_MOTION_DOT": -1.1e-07,
        "MEAN_MOTION_DDOT": 0
    },
    {
        "OBJECT_NAME": "COSMOS 2527 [GLONASS-M]",
        "OBJECT_ID": "2018-053A",
        "EPOCH": "2025-05-03T10:04:27.795360",
        "MEAN_MOTION": 2.13102187,
        "ECCENTRICITY": 0.0008811,
        "INCLINATION": 65.3556,
        "RA_OF_ASC_NODE": 87.5981,
        "ARG_OF_PERICENTER": 246.9053,
        "MEAN_ANOMALY": 112.9794,
        "EPHEMERIS_TYPE": 0,
        "CLASSIFICATION_TYPE": "U",
        "NORAD_CAT_ID": 43508,
        "ELEMENT_SET_NO": 999,
        "REV_AT_EPOCH": 5354,
        "BSTAR": 0,
        "MEAN_MOTION_DOT": 2.9e-07,
        "MEAN_MOTION_DDOT": 0
    },
    {
        "OBJECT_NAME": "COSMOS 2529 [GLONASS-M]",
        "OBJECT_ID": "2018-086A",
        "EPOCH": "2025-05-03T12:25:54.884640",
        "MEAN_MOTION": 2.1310201,
        "ECCENTRICITY": 0.0010191,
        "INCLINATION": 64.2915,
        "RA_OF_ASC_NODE": 206.4315,
        "ARG_OF_PERICENTER": 257.1149,
        "MEAN_ANOMALY": 102.8202,
        "EPHEMERIS_TYPE": 0,
        "CLASSIFICATION_TYPE": "U",
        "NORAD_CAT_ID": 43687,
        "ELEMENT_SET_NO": 999,
        "REV_AT_EPOCH": 5055,
        "BSTAR": 0,
        "MEAN_MOTION_DOT": -1.7e-07,
        "MEAN_MOTION_DDOT": 0
    },
    {
        "OBJECT_NAME": "COSMOS 2534 [GLONASS-M]",
        "OBJECT_ID": "2019-030A",
        "EPOCH": "2025-05-03T07:39:11.052288",
        "MEAN_MOTION": 2.13102336,
        "ECCENTRICITY": 0.001189,
        "INCLINATION": 64.3649,
        "RA_OF_ASC_NODE": 206.4218,
        "ARG_OF_PERICENTER": 278.9636,
        "MEAN_ANOMALY": 62.5281,
        "EPHEMERIS_TYPE": 0,
        "CLASSIFICATION_TYPE": "U",
        "NORAD_CAT_ID": 44299,
        "ELEMENT_SET_NO": 999,
        "REV_AT_EPOCH": 4618,
        "BSTAR": 0,
        "MEAN_MOTION_DOT": -1.5e-07,
        "MEAN_MOTION_DDOT": 0
    },
    {
        "OBJECT_NAME": "COSMOS 2544 [GLONASS-M]",
        "OBJECT_ID": "2019-088A",
        "EPOCH": "2025-05-03T08:44:19.561056",
        "MEAN_MOTION": 2.13101967,
        "ECCENTRICITY": 0.0014846,
        "INCLINATION": 65.3427,
        "RA_OF_ASC_NODE": 87.4309,
        "ARG_OF_PERICENTER": 262.5409,
        "MEAN_ANOMALY": 97.2679,
        "EPHEMERIS_TYPE": 0,
        "CLASSIFICATION_TYPE": "U",
        "NORAD_CAT_ID": 44850,
        "ELEMENT_SET_NO": 999,
        "REV_AT_EPOCH": 4198,
        "BSTAR": 0,
        "MEAN_MOTION_DOT": 2.9e-07,
        "MEAN_MOTION_DDOT": 0
    },
    {
        "OBJECT_NAME": "COSMOS 2545 [GLONASS-M]",
        "OBJECT_ID": "2020-018A",
        "EPOCH": "2025-05-03T02:11:45.204288",
        "MEAN_MOTION": 2.13102513,
        "ECCENTRICITY": 0.000712,
        "INCLINATION": 64.5933,
        "RA_OF_ASC_NODE": 326.799,
        "ARG_OF_PERICENTER": 242.8712,
        "MEAN_ANOMALY": 117.0824,
        "EPHEMERIS_TYPE": 0,
        "CLASSIFICATION_TYPE": "U",
        "NORAD_CAT_ID": 45358,
        "ELEMENT_SET_NO": 999,
        "REV_AT_EPOCH": 3992,
        "BSTAR": 0,
        "MEAN_MOTION_DOT": -5e-07,
        "MEAN_MOTION_DDOT": 0
    },
    {
        "OBJECT_NAME": "COSMOS 2547 [GLONASS-K]",
        "OBJECT_ID": "2020-075A",
        "EPOCH": "2025-05-03T17:55:17.096160",
        "MEAN_MOTION": 2.13100386,
        "ECCENTRICITY": 0.000803,
        "INCLINATION": 64.5948,
        "RA_OF_ASC_NODE": 206.1442,
        "ARG_OF_PERICENTER": 237.8412,
        "MEAN_ANOMALY": 122.1296,
        "EPHEMERIS_TYPE": 0,
        "CLASSIFICATION_TYPE": "U",
        "NORAD_CAT_ID": 46805,
        "ELEMENT_SET_NO": 999,
        "REV_AT_EPOCH": 3518,
        "BSTAR": 0,
        "MEAN_MOTION_DOT": -1.9e-07,
        "MEAN_MOTION_DDOT": 0
    },
    {
        "OBJECT_NAME": "COSMOS 2557 [GLONASS-K]",
        "OBJECT_ID": "2022-075A",
        "EPOCH": "2025-05-03T10:39:58.282848",
        "MEAN_MOTION": 2.13102033,
        "ECCENTRICITY": 0.0010664,
        "INCLINATION": 64.5286,
        "RA_OF_ASC_NODE": 328.8875,
        "ARG_OF_PERICENTER": 283.4099,
        "MEAN_ANOMALY": 76.4999,
        "EPHEMERIS_TYPE": 0,
        "CLASSIFICATION_TYPE": "U",
        "NORAD_CAT_ID": 52984,
        "ELEMENT_SET_NO": 999,
        "REV_AT_EPOCH": 2198,
        "BSTAR": 0,
        "MEAN_MOTION_DOT": -5.2e-07,
        "MEAN_MOTION_DDOT": 0
    },
    {
        "OBJECT_NAME": "COSMOS 2564 [GLONASS-M]",
        "OBJECT_ID": "2022-161A",
        "EPOCH": "2025-05-03T13:51:23.352768",
        "MEAN_MOTION": 2.13101982,
        "ECCENTRICITY": 0.0010563,
        "INCLINATION": 64.7366,
        "RA_OF_ASC_NODE": 206.3123,
        "ARG_OF_PERICENTER": 219.5408,
        "MEAN_ANOMALY": 140.431,
        "EPHEMERIS_TYPE": 0,
        "CLASSIFICATION_TYPE": "U",
        "NORAD_CAT_ID": 54377,
        "ELEMENT_SET_NO": 999,
        "REV_AT_EPOCH": 1890,
        "BSTAR": 0,
        "MEAN_MOTION_DOT": -1.7e-07,
        "MEAN_MOTION_DDOT": 0
    },
    {
        "OBJECT_NAME": "COSMOS 2569 [GLONASS-K2]",
        "OBJECT_ID": "2023-114A",
        "EPOCH": "2025-05-03T14:12:37.384704",
        "MEAN_MOTION": 2.13103788,
        "ECCENTRICITY": 0.0012524,
        "INCLINATION": 65.0742,
        "RA_OF_ASC_NODE": 86.4574,
        "ARG_OF_PERICENTER": 296.1704,
        "MEAN_ANOMALY": 63.6786,
        "EPHEMERIS_TYPE": 0,
        "CLASSIFICATION_TYPE": "U",
        "NORAD_CAT_ID": 57517,
        "ELEMENT_SET_NO": 999,
        "REV_AT_EPOCH": 1353,
        "BSTAR": 0,
        "MEAN_MOTION_DOT": 2.7e-07,
        "MEAN_MOTION_DDOT": 0
    },
    {
        "OBJECT_NAME": "COSMOS 2584 [GLONASS-K2]",
        "OBJECT_ID": "2025-042A",
        "EPOCH": "2025-05-03T00:13:28.264224",
        "MEAN_MOTION": 2.13103656,
        "ECCENTRICITY": 0.0007232,
        "INCLINATION": 64.8553,
        "RA_OF_ASC_NODE": 86.7706,
        "ARG_OF_PERICENTER": 236.1267,
        "MEAN_ANOMALY": 123.781,
        "EPHEMERIS_TYPE": 0,
        "CLASSIFICATION_TYPE": "U",
        "NORAD_CAT_ID": 63130,
        "ELEMENT_SET_NO": 999,
        "REV_AT_EPOCH": 130,
        "BSTAR": 0,
        "MEAN_MOTION_DOT": 2.5e-07,
        "MEAN_MOTION_DDOT": 0
    }
]